[{"OBJECT_NAME":"GLOBALSTAR M091","OBJECT_ID":"2011-033C","EPOCH":"2026-03-09T12:19:51.159648","MEAN_MOTION":12.62270327,"ECCENTRICITY":8.483e-5,"INCLINATION":51.9991,"RA_OF_ASC_NODE":185.3633,"ARG_OF_PERICENTER":103.6138,"MEAN_ANOMALY":336.8704,"EPHEMERIS_TYPE":0,"CLASSIFICATION_TYPE":"U","NORAD_CAT_ID":37741,"ELEMENT_SET_NO":999,"REV_AT_EPOCH":67669,"BSTAR":0.00014268137,"MEAN_MOTION_DOT":-7.8e-7,"MEAN_MOTION_DDOT":0},{"OBJECT_NAME":"COSMOS 2148","OBJECT_ID":"1991-033F","EPOCH":"2026-03-09T18:32:06.595584","MEAN_MOTION":12.65990249,"ECCENTRICITY":0.00230613,"INCLINATION":82.5777,"RA_OF_ASC_NODE":333.9593,"ARG_OF_PERICENTER":178.2134,"MEAN_ANOMALY":237.1343,"EPHEMERIS_TYPE":0,"CLASSIFICATION_TYPE":"U","NORAD_CAT_ID":21304,"ELEMENT_SET_NO":999,"REV_AT_EPOCH":60852,"BSTAR":0.00011776927,"MEAN_MOTION_DOT":3.3e-7,"MEAN_MOTION_DDOT":0}]
